{"type": "FeatureCollection", "features": [ {"type": "Feature", "properties": {"norad_id": 30048, "name": "FENGYUN 1C DEB", "group": "fengyun-1c-debris", "lat": 15.108235148123258, "lon": 36.95148826283099, "alt_km": 925.7324248081359, "timestamp": "2025-12-14T22:38:41.031358+00:00", "meta": {"OBJECT_NAME": "FENGYUN 1C DEB", "OBJECT_ID": "1999-025NZ", "EPOCH": "2025-12-14T03:26:39.225984", "MEAN_MOTION": 13.79894443, "ECCENTRICITY": 0.01862599, "INCLINATION": 98.6664, "RA_OF_ASC_NODE": 213.8584, "ARG_OF_PERICENTER": 241.1187, "MEAN_ANOMALY": 273.4917, "EPHEMERIS_TYPE": 0, "CLASSIFICATION_TYPE": "U", "NORAD_CAT_ID": 30048, "ELEMENT_SET_NO": 999, "REV_AT_EPOCH": 95145, "BSTAR": 0.00032646194, "MEAN_MOTION_DOT": 3.45e-06, "MEAN_MOTION_DDOT": 0}, "tle": {"line1": "1 30048U 99025NZ  25348.14350956  .00000345  00000+0  32646-3 0  9990", "line2": "2 30048  98.6664 213.8584 0186259 241.1187 273.4917 13.79894443951451"}}, "geometry": {"type": "Point", "coordinates": [36.95148826283099, 15.108235148123258]}}, {"type": "Feature", "properties": {"norad_id": 30050, "name": "FENGYUN 1C DEB", "group": "fengyun-1c-debris", "lat": -12.716388573688054, "lon": 126.98599052316436, "alt_km": 1073.595008382411, "timestamp": "2025-12-14T22:38:41.031369+00:00", "meta": {"OBJECT_NAME": "FENGYUN 1C DEB", "OBJECT_ID": "1999-025PB", "EPOCH": "2025-12-14T08:34:57.581760", "MEAN_MOTION": 13.85055642, "ECCENTRICITY": 0.01715404, "INCLINATION": 96.8177, "RA_OF_ASC_NODE": 308.1062, "ARG_OF_PERICENTER": 25.598, "MEAN_ANOMALY": 126.8658, "EPHEMERIS_TYPE": 0, "CLASSIFICATION_TYPE": "U", "NORAD_CAT_ID": 30050, "ELEMENT_SET_NO": 999, "REV_AT_EPOCH": 95224, "BSTAR": 0.0016194613, "MEAN_MOTION_DOT": 2.03e-05, "MEAN_MOTION_DDOT": 0}, "tle": {"line1": "1 30050U 99025PB  25348.35761090  .00002030  00000+0  16195-2 0  9994", "line2": "2 30050  96.8177 308.1062 0171540  25.5980 126.8658 13.85055642952242"}}, "geometry": {"type": "Point", "coordinates": [126.98599052316436, -12.716388573688054]}}, {"type": "Feature", "properties": {"norad_id": 30052, "name": "FENGYUN 1C DEB", "group": "fengyun-1c-debris", "lat": 14.980295269181163, "lon": 11.965462430515807, "alt_km": 1170.14031239834, "timestamp": "2025-12-14T22:38:41.031379+00:00", "meta": {"OBJECT_NAME": "FENGYUN 1C DEB", "OBJECT_ID": "1999-025PD", "EPOCH": "2025-12-14T08:39:50.786208", "MEAN_MOTION": 13.72962355, "ECCENTRICITY": 0.02890518, "INCLINATION": 99.2991, "RA_OF_ASC_NODE": 13.9117, "ARG_OF_PERICENTER": 228.0135, "MEAN_ANOMALY": 147.8243, "EPHEMERIS_TYPE": 0, "CLASSIFICATION_TYPE": "U", "NORAD_CAT_ID": 30052, "ELEMENT_SET_NO": 999, "REV_AT_EPOCH": 94577, "BSTAR": 0.00058399285, "MEAN_MOTION_DOT": 6.83e-06, "MEAN_MOTION_DDOT": 0}, "tle": {"line1": "1 30052U 99025PD  25348.36100447  .00000683  00000+0  58399-3 0  9995", "line2": "2 30052  99.2991  13.9117 0289051 228.0135 147.8243 13.72962355945773"}}, "geometry": {"type": "Point", "coordinates": [11.965462430515807, 14.980295269181163]}}, {"type": "Feature", "properties": {"norad_id": 30053, "name": "FENGYUN 1C DEB", "group": "fengyun-1c-debris", "lat": 20.852318952572166, "lon": 158.60376637482804, "alt_km": 750.6361597196874, "timestamp": "2025-12-14T22:38:41.031390+00:00", "meta": {"OBJECT_NAME": "FENGYUN 1C DEB", "OBJECT_ID": "1999-025PE", "EPOCH": "2025-12-14T06:12:49.595904", "MEAN_MOTION": 13.94148519, "ECCENTRICITY": 0.03314907, "INCLINATION": 98.5753, "RA_OF_ASC_NODE": 161.2617, "ARG_OF_PERICENTER": 334.1836, "MEAN_ANOMALY": 210.0222, "EPHEMERIS_TYPE": 0, "CLASSIFICATION_TYPE": "U", "NORAD_CAT_ID": 30053, "ELEMENT_SET_NO": 999, "REV_AT_EPOCH": 95007, "BSTAR": 0.0014935861, "MEAN_MOTION_DOT": 3.083e-05, "MEAN_MOTION_DDOT": 0}, "tle": {"line1": "1 30053U 99025PE  25348.25890736  .00003083  00000+0  14936-2 0  9996", "line2": "2 30053  98.5753 161.2617 0331490 334.1836 210.0222 13.94148519950077"}}, "geometry": {"type": "Point", "coordinates": [158.60376637482804, 20.852318952572166]}}, {"type": "Feature", "properties": {"norad_id": 30054, "name": "FENGYUN 1C DEB", "group": "fengyun-1c-debris", "lat": -75.41992893230697, "lon": 60.534794285689216, "alt_km": 960.6857112966727, "timestamp": "2025-12-14T22:38:41.031400+00:00", "meta": {"OBJECT_NAME": "FENGYUN 1C DEB", "OBJECT_ID": "1999-025PF", "EPOCH": "2025-12-14T02:15:52.248672", "MEAN_MOTION": 13.69866789, "ECCENTRICITY": 0.02757799, "INCLINATION": 99.3717, "RA_OF_ASC_NODE": 20.295, "ARG_OF_PERICENTER": 1.7411, "MEAN_ANOMALY": 57.0575, "EPHEMERIS_TYPE": 0, "CLASSIFICATION_TYPE": "U", "NORAD_CAT_ID": 30054, "ELEMENT_SET_NO": 999, "REV_AT_EPOCH": 94367, "BSTAR": 0.00066814421, "MEAN_MOTION_DOT": 7.21e-06, "MEAN_MOTION_DDOT": 0}, "tle": {"line1": "1 30054U 99025PF  25348.09435473  .00000721  00000+0  66814-3 0  9991", "line2": "2 30054  99.3717  20.2950 0275779   1.7411  57.0575 13.69866789943670"}}, "geometry": {"type": "Point", "coordinates": [60.534794285689216, -75.41992893230697]}}, {"type": "Feature", "properties": {"norad_id": 30056, "name": "FENGYUN 1C DEB", "group": "fengyun-1c-debris", "lat": -78.78647851272194, "lon": -53.28134568901796, "alt_km": 869.5937920808537, "timestamp": "2025-12-14T22:38:41.031421+00:00", "meta": {"OBJECT_NAME": "FENGYUN 1C DEB", "OBJECT_ID": "1999-025PH", "EPOCH": "2025-12-14T00:24:18.560736", "MEAN_MOTION": 13.73997162, "ECCENTRICITY": 0.0299575, "INCLINATION": 98.3227, "RA_OF_ASC_NODE": 173.501, "ARG_OF_PERICENTER": 207.387, "MEAN_ANOMALY": 151.1216, "EPHEMERIS_TYPE": 0, "CLASSIFICATION_TYPE": "U", "NORAD_CAT_ID": 30056, "ELEMENT_SET_NO": 999, "REV_AT_EPOCH": 93993, "BSTAR": 0.0032018357, "MEAN_MOTION_DOT": 4.122e-05, "MEAN_MOTION_DDOT": 0}, "tle": {"line1": "1 30056U 99025PH  25348.01688149  .00004122  00000+0  32018-2 0  9992", "line2": "2 30056  98.3227 173.5010 0299575 207.3870 151.1216 13.73997162939936"}}, "geometry": {"type": "Point", "coordinates": [-53.28134568901796, -78.78647851272194]}}, {"type": "Feature", "properties": {"norad_id": 30057, "name": "FENGYUN 1C DEB", "group": "fengyun-1c-debris", "lat": -71.58881749802839, "lon": -150.55347128917006, "alt_km": 1132.7541409043706, "timestamp": "2025-12-14T22:38:41.031433+00:00", "meta": {"OBJECT_NAME": "FENGYUN 1C DEB", "OBJECT_ID": "1999-025PJ", "EPOCH": "2025-12-14T04:00:24.704640", "MEAN_MOTION": 13.57127489, "ECCENTRICITY": 0.02925192, "INCLINATION": 98.8835, "RA_OF_ASC_NODE": 56.7676, "ARG_OF_PERICENTER": 142.8012, "MEAN_ANOMALY": 275.7705, "EPHEMERIS_TYPE": 0, "CLASSIFICATION_TYPE": "U", "NORAD_CAT_ID": 30057, "ELEMENT_SET_NO": 999, "REV_AT_EPOCH": 93255, "BSTAR": 0.0016353783, "MEAN_MOTION_DOT": 1.501e-05, "MEAN_MOTION_DDOT": 0}, "tle": {"line1": "1 30057U 99025PJ  25348.16695260  .00001501  00000+0  16354-2 0  9994", "line2": "2 30057  98.8835  56.7676 0292519 142.8012 275.7705 13.57127489932555"}}, "geometry": {"type": "Point", "coordinates": [-150.55347128917006, -71.58881749802839]}}, {"type": "Feature", "properties": {"norad_id": 30058, "name": "FENGYUN 1C DEB", "group": "fengyun-1c-debris", "lat": -67.84163220361339, "lon": 148.42365461232538, "alt_km": 1131.8009994400982, "timestamp": "2025-12-14T22:38:41.031444+00:00", "meta": {"OBJECT_NAME": "FENGYUN 1C DEB", "OBJECT_ID": "1999-025PK", "EPOCH": "2025-12-13T22:35:12.458688", "MEAN_MOTION": 13.48238615, "ECCENTRICITY": 0.03157518, "INCLINATION": 99.6498, "RA_OF_ASC_NODE": 352.1477, "ARG_OF_PERICENTER": 149.4036, "MEAN_ANOMALY": 274.0805, "EPHEMERIS_TYPE": 0, "CLASSIFICATION_TYPE": "U", "NORAD_CAT_ID": 30058, "ELEMENT_SET_NO": 999, "REV_AT_EPOCH": 92864, "BSTAR": 0.00074751316, "MEAN_MOTION_DOT": 5.87e-06, "MEAN_MOTION_DDOT": 0}, "tle": {"line1": "1 30058U 99025PK  25347.94111642  .00000587  00000+0  74751-3 0  9996", "line2": "2 30058  99.6498 352.1477 0315751 149.4036 274.0805 13.48238615928647"}}, "geometry": {"type": "Point", "coordinates": [148.42365461232538, -67.84163220361339]}}, {"type": "Feature", "properties": {"norad_id": 30059, "name": "FENGYUN 1C DEB", "group": "fengyun-1c-debris", "lat": 21.356925668315423, "lon": -19.511318080755316, "alt_km": 1057.9130977715704, "timestamp": "2025-12-14T22:38:41.031454+00:00", "meta": {"OBJECT_NAME": "FENGYUN 1C DEB", "OBJECT_ID": "1999-025PL", "EPOCH": "2025-12-13T21:52:00.234912", "MEAN_MOTION": 13.45495448, "ECCENTRICITY": 0.03266227, "INCLINATION": 98.8227, "RA_OF_ASC_NODE": 343.0609, "ARG_OF_PERICENTER": 299.7052, "MEAN_ANOMALY": 120.1204, "EPHEMERIS_TYPE": 0, "CLASSIFICATION_TYPE": "U", "NORAD_CAT_ID": 30059, "ELEMENT_SET_NO": 999, "REV_AT_EPOCH": 92813, "BSTAR": 0.00050518776, "MEAN_MOTION_DOT": 3.74e-06, "MEAN_MOTION_DDOT": 0}, "tle": {"line1": "1 30059U 99025PL  25347.91111383  .00000374  00000+0  50519-3 0  9996", "line2": "2 30059  98.8227 343.0609 0326622 299.7052 120.1204 13.45495448928135"}}, "geometry": {"type": "Point", "coordinates": [-19.511318080755316, 21.356925668315423]}}, {"type": "Feature", "properties": {"norad_id": 30060, "name": "FENGYUN 1C DEB", "group": "fengyun-1c-debris", "lat": -63.87313925312773, "lon": 15.928729264610167, "alt_km": 1360.1989743901413, "timestamp": "2025-12-14T22:38:41.031465+00:00", "meta": {"OBJECT_NAME": "FENGYUN 1C DEB", "OBJECT_ID": "1999-025PM", "EPOCH": "2025-12-14T02:30:56.094624", "MEAN_MOTION": 13.43761887, "ECCENTRICITY": 0.03448828, "INCLINATION": 99.3149, "RA_OF_ASC_NODE": 214.7003, "ARG_OF_PERICENTER": 68.2069, "MEAN_ANOMALY": 81.9434, "EPHEMERIS_TYPE": 0, "CLASSIFICATION_TYPE": "U", "NORAD_CAT_ID": 30060, "ELEMENT_SET_NO": 999, "REV_AT_EPOCH": 92261, "BSTAR": 0.0026108445, "MEAN_MOTION_DOT": 2.112e-05, "MEAN_MOTION_DDOT": 0}, "tle": {"line1": "1 30060U 99025PM  25348.10481591  .00002112  00000+0  26108-2 0  9999", "line2": "2 30060  99.3149 214.7003 0344882  68.2069  81.9434 13.43761887922610"}}, "geometry": {"type": "Point", "coordinates": [15.928729264610167, -63.87313925312773]}}]}